APSTAR-9                
1 40982U 15059A   26087.92940051 -.00000286  00000+0  00000+0 0  9991
2 40982   0.0451 318.1979 0001306 289.6098  55.0837  1.00269802 38316
