{
  "norad_id": 40982,
  "name": "APSTAR-9",
  "history": [
    {
      "epoch": "2026-03-28T22:18:20.204064Z",
      "apogee_km": 35792.65766383406,
      "perigee_km": 35781.644090640526,
      "latitude_deg": 0.018507114204989926,
      "longitude_deg": 142.00025330395414,
      "height_km": 35783.51627579802,
      "semi_major_axis_km": 42165.28787723729,
      "eccentricity": 0.0001306,
      "inclination_deg": 0.0451,
      "raan_deg": 318.1979,
      "arg_perigee_deg": 289.6098,
      "mean_anomaly_deg": 55.0837,
      "mean_motion_rev_day": 1.00269802
    }
  ]
}